1 61998U 16053Q   25174.74026028  .00000082  00000-0  00000-0 0  9996
2 61998   0.6329  87.8668 0018597 325.1238 307.1744  1.00389431  2504
1 61998U 16053Q   25175.73634057  .00000081  00000-0  00000-0 0  9992
2 61998   0.6359  87.8426 0018457 325.8560 306.4627  1.00390552  2518
1 61998U 16053Q   25176.73241629  .00000080  00000-0  00000-0 0  9991
2 61998   0.6388  87.8272 0018364 326.5339 305.7971  1.00391078  2527
1 61998U 16053Q   25177.72848734  .00000080  00000-0  00000-0 0  9991
2 61998   0.6415  87.8260 0018240 327.0821 305.2472  1.00391502  2534
1 61998U 16053Q   25178.72456208  .00000082  00000-0  00000-0 0  9995
2 61998   0.6439  87.8342 0018152 327.8554 304.4649  1.00391939  2546
1 61998U 16053Q   25179.72063271  .00000085  00000-0  00000-0 0  9993
2 61998   0.6463  87.8375 0018029 328.5325 303.7844  1.00392484  2552
1 61998U 16053Q   25180.71669911  .00000089  00000-0  00000-0 0  9991
2 61998   0.6487  87.8321 0017898 329.0366 303.2865  1.00392691  2562
1 61998U 16053Q   25181.71277159  .00000095  00000-0  00000-0 0  9998
2 61998   0.6509  87.8297 0017851 329.8854 302.4433  1.00393249  2571
1 61998U 16053Q   25183.70489834  .00000107  00000-0  00000-0 0  9998
2 61998   0.6555  87.8137 0017626 331.5036 300.8472  1.00394456  2595
1 61998U 16053Q   25183.70499878  .00000106  00000-0  00000-0 0  9996
2 61998   0.6556  87.7490 0017547 332.3472 300.0689  1.00384637  2594
1 61998U 16053Q   25184.70095261  .00000112  00000-0  00000-0 0  9992
2 61998   0.6578  87.7980 0017438 332.5241 299.8449  1.00394675  2601
1 61998U 16053Q   25185.69700105  .00000117  00000-0  00000-0 0  9996
2 61998   0.6602  87.7818 0017341 332.9595 299.4278  1.00395186  2613
1 61998U 16053Q   25186.69304612  .00000120  00000-0  00000-0 0  9994
2 61998   0.6624  87.7673 0017216 333.6613 298.7420  1.00395031  2627
1 61998U 16053Q   25187.68908299  .00000123  00000-0  00000-0 0  9998
2 61998   0.6647  87.7530 0017151 333.9215 298.4967  1.00395420  2639
1 61998U 16053Q   25188.68511557  .00000125  00000-0  00000-0 0  9998
2 61998   0.6681  87.7357 0017864 334.0632 298.3708  1.00396857  2637
1 61998U 16053Q   25188.68511561  .00000125  00000-0  00000-0 0  9993
2 61998   0.6671  87.7404 0016987 334.5024 297.9279  1.00395875  2642
1 61998U 16053Q   25190.67716478  .00000125  00000-0  00000-0 0  9999
2 61998   0.6718  87.7201 0016703 335.4603 296.9875  1.00396345  2664
1 61998U 16053Q   25191.67318301  .00000125  00000-0  00000-0 0  9993
2 61998   0.6741  87.7171 0016371 336.6508 295.7974  1.00396963  2678
1 61998U 16053Q   25192.66920096  .00000125  00000-0  00000-0 0  9993
2 61998   0.6765  87.7137 0016392 336.5438 295.9070  1.00397272  2684
1 61998U 16053Q   25192.66920198  .00000125  00000-0  00000-0 0  9996
2 61998   0.6765  87.7146 0016168 337.2110 295.2374  1.00397471  2681
1 61998U 16053Q   25193.66522405  .00000125  00000-0  00000-0 0  9996
2 61998   0.6788  87.7065 0016193 336.9147 295.5411  1.00397002  2696
1 61998U 16053Q   25194.66122903  .00000126  00000-0  00000-0 0  9997
2 61998   0.6812  87.7045 0015963 337.4296 295.0264  1.00398167  2703
1 61998U 16053Q   25195.65724580  .00000127  00000-0  00000-0 0  9997
2 61998   0.6837  87.6928 0015707 338.0117 294.4545  1.00397870  2710
1 61998U 16053Q   25196.65325063  .00000128  00000-0  00000-0 0  9992
2 61998   0.6862  87.6826 0015458 338.5108 293.9642  1.00398515  2723
1 61998U 16053Q   25197.64925892  .00000130  00000-0  00000-0 0  9991
2 61998   0.6887  87.6617 0015260 338.7000 293.7945  1.00398397  2735
1 61998U 16053Q   25198.64525838  .00000130  00000-0  00000-0 0  9998
2 61998   0.6914  87.6409 0015106 338.8570 293.6567  1.00398949  2740
1 61998U 16053Q   25199.64126563  .00000130  00000-0  00000-0 0  9991
2 61998   0.6941  87.6215 0014911 340.1745 292.3570  1.00399089  2755
1 61998U 16053Q   25200.63729238  .00000129  00000-0  00000-0 0  9999
2 61998   0.6969  87.5801 0015200 342.1850 290.3909  1.00399361  2764
1 61998U 16053Q   25201.63330096  .00000127  00000-0  00000-0 0  9998
2 61998   0.6997  87.5428 0015379 344.2771 288.3371  1.00400326  2777
1 61998U 16053Q   25202.62927892  .00000124  00000-0  00000-0 0  9991
2 61998   0.7025  87.5173 0015259 344.6514 287.9836  1.00400680  2788
1 61998U 16053Q   25203.62525011  .00000121  00000-0  00000-0 0  9996
2 61998   0.7052  87.4998 0015170 344.9930 287.6551  1.00401342  2797
1 61998U 16053Q   25204.62122386  .00000119  00000-0  00000-0 0  9992
2 61998   0.7080  87.4904 0015080 345.4756 287.1783  1.00401561  2804
1 61998U 16053Q   25205.61718726  .00000118  00000-0  00000-0 0  9990
2 61998   0.7106  87.4839 0014979 345.8197 286.8380  1.00402610  2815
1 61998U 16053Q   25206.61315432  .00000119  00000-0  00000-0 0  9999
2 61998   0.7132  87.4854 0014948 346.0760 286.5794  1.00403056  2828
1 61998U 16053Q   25207.60911886  .00000121  00000-0  00000-0 0  9997
2 61998   0.7156  87.4878 0014907 346.4489 286.2047  1.00403425  2836
1 61998U 16053Q   25208.60508131  .00000125  00000-0  00000-0 0  9997
2 61998   0.7180  87.4796 0014867 346.7597 285.9037  1.00403965  2845
1 61998U 16053Q   25209.60103842  .00000129  00000-0  00000-0 0  9992
2 61998   0.7203  87.4718 0014825 347.1266 285.5471  1.00404756  2855
1 61998U 16053Q   25210.59699692  .00000134  00000-0  00000-0 0  9991
2 61998   0.7225  87.4576 0014867 347.4465 285.2452  1.00404958  2862
1 61998U 16053Q   25211.59294490  .00000138  00000-0  00000-0 0  9993
2 61998   0.7248  87.4441 0014829 347.7959 284.9122  1.00405693  2875
1 61998U 16053Q   25212.58888679  .00000141  00000-0  00000-0 0  9995
2 61998   0.7271  87.4284 0014721 348.3704 284.3554  1.00406221  2884
1 61998U 16053Q   25213.58482186  .00000144  00000-0  00000-0 0  9992
2 61998   0.7294  87.4123 0014634 348.8072 283.9362  1.00406736  2891
1 61998U 16053Q   25214.58075320  .00000145  00000-0  00000-0 0  9992
2 61998   0.7316  87.3922 0014545 349.1587 283.6056  1.00406917  2908
1 61998U 16053Q   25215.57668046  .00000145  00000-0  00000-0 0  9995
2 61998   0.7339  87.3795 0014553 349.2066 283.5714  1.00407025  2915
1 61998U 16053Q   25216.57260123  .00000145  00000-0  00000-0 0  9990
2 61998   0.7362  87.3681 0014564 349.2418 283.5480  1.00407388  2921
1 61998U 16053Q   25223.54414575  .00000137  00000-0  00000-0 0  9998
2 61998   0.7536  87.2815 0013485 351.4010 281.4655  1.00404831  2994
1 61998U 16053Q   25231.51088996  .00000115  00000-0  00000-0 0  9994
2 61998   0.7744  87.1289 0013492 354.3520 278.6571  1.00414123  3064
1 61998U 16053Q   25232.50673344  .00000112  00000-0  00000-0 0  9998
2 61998   0.7769  87.1124 0013410 354.5137 278.5090  1.00414591  3070
1 61998U 16053Q   25234.49842202  .00000110  00000-0  00000-0 0  9997
2 61998   0.7819  87.0792 0013152 354.5393 278.5134  1.00415456  3095
1 61998U 16053Q   25235.49426638  .00000111  00000-0  00000-0 0  9990
2 61998   0.7844  87.0551 0013073 354.9034 278.1745  1.00415868  3107
1 61998U 16053Q   25236.49010239  .00000113  00000-0  00000-0 0  9999
2 61998   0.7870  87.0355 0012979 355.0359 278.0632  1.00416358  3114
1 61998U 16053Q   25236.49010480  .00000113  00000-0  00000-0 0  9997
2 61998   0.7870  87.0367 0012986 354.9940 278.1041  1.00416343  3118
1 61998U 16053Q   25237.48593977  .00000116  00000-0  00000-0 0  9997
2 61998   0.7896  87.0174 0012894 355.1887 277.9310  1.00416808  3126
1 61998U 16053Q   25237.48594123  .00000116  00000-0  00000-0 0  9991
2 61998   0.7896  87.0184 0012895 355.1554 277.9634  1.00416797  3125
1 61998U 16053Q   25238.48177331  .00000118  00000-0  00000-0 0  9992
2 61998   0.7922  87.0016 0012806 355.3452 277.7929  1.00417258  3139
1 61998U 16053Q   25239.47760124  .00000120  00000-0  00000-0 0  9993
2 61998   0.7948  86.9839 0012710 355.4674 277.6906  1.00417715  3142
1 61998U 16053Q   25239.47760236  .00000120  00000-0  00000-0 0  9997
2 61998   0.7948  86.9829 0012693 355.4958 277.6630  1.00417697  3149
1 61998U 16053Q   25240.47342503  .00000122  00000-0  00000-0 0  9994
2 61998   0.7974  86.9662 0012598 355.6264 277.5510  1.00418149  3159
1 61998U 16053Q   25240.47342522  .00000122  00000-0  00000-0 0  9995
2 61998   0.7975  86.9660 0012590 355.6417 277.5358  1.00418144  3155
1 61998U 16053Q   25240.47343120  .00000122  00000-0  00000-0 0  9990
2 61998   0.7975  86.9646 0012466 355.4992 277.6782  1.00418074  3162
1 61998U 16053Q   25241.46924446  .00000122  00000-0  00000-0 0  9996
2 61998   0.8000  86.9497 0012413 355.5389 277.6552  1.00418562  3166
1 61998U 16053Q   25242.46504950  .00000121  00000-0  00000-0 0  9990
2 61998   0.8026  86.9307 0012314 355.6714 277.5422  1.00419064  3182
1 61998U 16053Q   25243.46085721  .00000119  00000-0  00000-0 0  9998
2 61998   0.8052  86.9120 0012231 355.7598 277.4725  1.00419479  3199
1 61998U 16053Q   25243.46085927  .00000119  00000-0  00000-0 0  9996
2 61998   0.8052  86.9133 0012233 355.7369 277.4941  1.00419460  3180
1 61998U 16053Q   25244.45665609  .00000117  00000-0  00000-0 0  9995
2 61998   0.8078  86.8943 0012136 355.8617 277.3877  1.00419917  3202
1 61998U 16053Q   25244.45665629  .00000117  00000-0  00000-0 0  9997
2 61998   0.8078  86.8943 0012146 355.8386 277.4110  1.00419919  3197
1 61998U 16053Q   25245.45244943  .00000113  00000-0  00000-0 0  9996
2 61998   0.8104  86.8770 0012057 355.9369 277.3290  1.00420360  3211
1 61998U 16053Q   25245.45245020  .00000113  00000-0  00000-0 0  9993
2 61998   0.8104  86.8773 0012065 355.9188 277.3469  1.00420356  3204
1 61998U 16053Q   25246.44824023  .00000110  00000-0  00000-0 0  9996
2 61998   0.8130  86.8597 0011959 356.0668 277.2155  1.00420769  3224
1 61998U 16053Q   25247.44402486  .00000107  00000-0  00000-0 0  9998
2 61998   0.8155  86.8412 0011869 356.1746 277.1255  1.00421200  3237
1 61998U 16053Q   25248.43980680  .00000104  00000-0  00000-0 0  9992
2 61998   0.8181  86.8235 0011803 356.2794 277.0383  1.00421629  3237
1 61998U 16053Q   25248.43980773  .00000104  00000-0  00000-0 0  9995
2 61998   0.8181  86.8230 0011789 356.2802 277.0378  1.00421613  3243
